{
"type": "FeatureCollection",
"name": "data_bus40",
"crs": { "type": "name", "properties": { "name": "urn:ogc:def:crs:OGC:1.3:CRS84" } },
"features": [
{ "type": "Feature", "properties": { "fid": 45, "full_id": "r4500364", "osm_id": "4500364", "osm_type": "relation", "route": "bus", "start_date": null, "direction": null, "segment": null, "description": null, "name:en": null, "ref_trips": null, "name:nl": null, "name:fr": null, "name:de": null, "gtfs:trip_id:sample": null, "gtfs:shape_id": null, "gtfs:route_id": null, "gtfs:feed": null, "colour:text": null, "roundtrip": null, "network:website": null, "website": null, "network:wikipedia": null, "service": null, "operator:wikipedia": null, "colour": null, "via": null, "wikipedia": "nl:Buslijn 40 (Rotterdam)", "wikidata": "Q4921521", "type": "route", "to": "Delft, Station Delft", "ref": "40", "public_transport:version": "2", "operator:wikidata": "Q839557", "operator": "RET", "network:wikidata": "Q108716132", "network": "Bus Rotterdam", "name": "Bus 40: Rotterdam Centraal => Delft Station Delft", "from": "Rotterdam, Rotterdam Centraal", "brand:wikidata": null, "brand": null }, "geometry": { "type": "MultiLineString", "coordinates": [ [ [ 4.4683738, 51.9239825 ], [ 4.4686065, 51.9240269 ], [ 4.468666, 51.9240325 ], [ 4.4687037, 51.9240334 ], [ 4.4687411, 51.9240315 ], [ 4.4687824, 51.9240232 ], [ 4.4688205, 51.9240096 ], [ 4.4688545, 51.9239913 ], [ 4.4688795, 51.9239729 ], [ 4.4688993, 51.9239506 ], [ 4.4689113, 51.9239344 ], [ 4.4689282, 51.9239118 ], [ 4.4689367, 51.9238871 ], [ 4.4689371, 51.9238673 ], [ 4.468931, 51.9238482 ], [ 4.4689213, 51.9238319 ], [ 4.4689063, 51.9238217 ], [ 4.4688862, 51.9238124 ], [ 4.4688682, 51.9238066 ], [ 4.4684164, 51.9237139 ] ], [ [ 4.4684164, 51.9237139 ], [ 4.4682817, 51.9236877 ], [ 4.4678361, 51.9236014 ] ], [ [ 4.4678361, 51.9236014 ], [ 4.4677359, 51.9235859 ], [ 4.4674915, 51.9235551 ], [ 4.467406, 51.9235444 ], [ 4.4673209, 51.9235377 ] ], [ [ 4.4673209, 51.9235377 ], [ 4.4669786, 51.9235387 ] ], [ [ 4.4669786, 51.9235387 ], [ 4.4665226, 51.9235401 ] ], [ [ 4.4665226, 51.9235401 ], [ 4.4663345, 51.9235385 ], [ 4.4661421, 51.9235379 ] ], [ [ 4.4661396, 51.9233651 ], [ 4.4661421, 51.9235379 ] ], [ [ 4.4661355, 51.9230767 ], [ 4.4661396, 51.9233651 ] ], [ [ 4.4661341, 51.9229985 ], [ 4.4661354, 51.9230326 ], [ 4.4661355, 51.9230767 ] ], [ [ 4.4661292, 51.9228669 ], [ 4.4661341, 51.9229985 ] ], [ [ 4.4661031, 51.9225636 ], [ 4.4661108, 51.9226572 ], [ 4.4661146, 51.9227008 ], [ 4.4661177, 51.9227361 ], [ 4.4661292, 51.9228669 ] ], [ [ 4.4661031, 51.9225636 ], [ 4.4659122, 51.9225787 ], [ 4.4658626, 51.9225824 ], [ 4.4653082, 51.9226236 ], [ 4.4645932, 51.9226706 ] ], [ [ 4.4645932, 51.9226706 ], [ 4.4641076, 51.9227006 ], [ 4.4639494, 51.9227095 ], [ 4.4638232, 51.9227141 ], [ 4.4637326, 51.9227163 ], [ 4.4636419, 51.9227174 ], [ 4.4635182, 51.9227151 ], [ 4.4634313, 51.9227124 ], [ 4.4633483, 51.9227076 ], [ 4.4631988, 51.9226944 ], [ 4.4631435, 51.9226896 ], [ 4.4631103, 51.9226868 ], [ 4.463064, 51.9226815 ], [ 4.4630033, 51.9226739 ], [ 4.4629409, 51.9226645 ] ], [ [ 4.4629409, 51.9226645 ], [ 4.4629276, 51.9226624 ], [ 4.4628351, 51.9226479 ], [ 4.462784, 51.9226396 ], [ 4.4627358, 51.9226309 ], [ 4.4626965, 51.9226232 ], [ 4.4626495, 51.9226121 ], [ 4.4626077, 51.9226011 ], [ 4.4625731, 51.9225901 ] ], [ [ 4.4625731, 51.9225901 ], [ 4.4624456, 51.9225368 ], [ 4.4623919, 51.9225122 ], [ 4.46233, 51.9224838 ], [ 4.4619885, 51.9223321 ], [ 4.4617093, 51.922195 ], [ 4.4616448, 51.922171 ] ], [ [ 4.4599094, 51.921886 ], [ 4.4600325, 51.9219062 ], [ 4.4604705, 51.9219773 ], [ 4.4613142, 51.9221156 ], [ 4.4616448, 51.922171 ] ], [ [ 4.4565831, 51.9213873 ], [ 4.4566331, 51.9213916 ], [ 4.4576673, 51.921552 ], [ 4.4577853, 51.9215706 ], [ 4.458058, 51.9216089 ], [ 4.4582198, 51.9216332 ], [ 4.4597362, 51.9218601 ], [ 4.4599094, 51.921886 ] ], [ [ 4.4565831, 51.9213873 ], [ 4.456427, 51.9214005 ], [ 4.4563845, 51.9214019 ], [ 4.4562106, 51.9214041 ], [ 4.4560904, 51.9214067 ], [ 4.4559084, 51.9213913 ], [ 4.4557499, 51.9213717 ], [ 4.4554993, 51.9213371 ], [ 4.4553775, 51.921324 ], [ 4.455322, 51.9213178 ], [ 4.4551854, 51.9213134 ] ], [ [ 4.4551854, 51.9213134 ], [ 4.4551385, 51.9213518 ], [ 4.4550724, 51.9213774 ] ], [ [ 4.4550724, 51.9213774 ], [ 4.4550776, 51.9214602 ], [ 4.4550851, 51.9215008 ], [ 4.455102, 51.9216757 ], [ 4.4550899, 51.9218326 ] ], [ [ 4.4550899, 51.9218326 ], [ 4.4551035, 51.9220362 ], [ 4.4551046, 51.9221035 ], [ 4.4551018, 51.9221732 ], [ 4.4550948, 51.9222349 ], [ 4.455076, 51.9224184 ], [ 4.4550073, 51.9227973 ], [ 4.4549616, 51.9230629 ] ], [ [ 4.4549616, 51.9230629 ], [ 4.4547985, 51.9240059 ] ], [ [ 4.4547985, 51.9240059 ], [ 4.4545738, 51.9248404 ], [ 4.4544971, 51.9251254 ] ], [ [ 4.4544971, 51.9251254 ], [ 4.4545087, 51.9251758 ], [ 4.4544947, 51.9253143 ], [ 4.4544912, 51.9253493 ], [ 4.454461, 51.9254092 ] ], [ [ 4.454461, 51.9254092 ], [ 4.4544247, 51.9255415 ] ], [ [ 4.4544247, 51.9255415 ], [ 4.4543974, 51.9256225 ], [ 4.4543887, 51.9256601 ], [ 4.4543781, 51.9257693 ], [ 4.4543542, 51.9258783 ] ], [ [ 4.4543542, 51.9258783 ], [ 4.4543871, 51.925981 ], [ 4.4544488, 51.9262046 ], [ 4.4545137, 51.9265237 ], [ 4.4545301, 51.9265879 ] ], [ [ 4.4545301, 51.9265879 ], [ 4.4545924, 51.9268305 ] ], [ [ 4.4545924, 51.9268305 ], [ 4.4546198, 51.9269176 ], [ 4.4547638, 51.9274642 ], [ 4.4549944, 51.9283163 ], [ 4.4550393, 51.9285287 ] ], [ [ 4.4550393, 51.9285287 ], [ 4.4550696, 51.9285562 ], [ 4.4551226, 51.9286019 ], [ 4.4551614, 51.9287376 ], [ 4.4551613, 51.928859 ], [ 4.4551612, 51.9289344 ], [ 4.4551612, 51.9289858 ], [ 4.4551369, 51.92908 ] ], [ [ 4.4551369, 51.92908 ], [ 4.4551149, 51.9291021 ], [ 4.4550749, 51.9291251 ], [ 4.4548689, 51.9292044 ] ], [ [ 4.4548689, 51.9292044 ], [ 4.4545624, 51.9291219 ], [ 4.4544389, 51.9290891 ], [ 4.4539883, 51.928991 ], [ 4.4535955, 51.9289192 ], [ 4.4533467, 51.928883 ], [ 4.4531352, 51.9288576 ], [ 4.4528569, 51.9288338 ] ], [ [ 4.4528569, 51.9288338 ], [ 4.4526247, 51.9288197 ], [ 4.4524888, 51.928815 ], [ 4.452291, 51.9288114 ], [ 4.4519195, 51.9288264 ], [ 4.4515117, 51.9288628 ], [ 4.4509268, 51.9289242 ], [ 4.4485549, 51.9291987 ] ], [ [ 4.4485549, 51.9291987 ], [ 4.4483394, 51.9292831 ] ], [ [ 4.4483394, 51.9292831 ], [ 4.4480514, 51.9293576 ], [ 4.4477665, 51.9294258 ] ], [ [ 4.4477665, 51.9294258 ], [ 4.4474471, 51.929502 ] ], [ [ 4.4474471, 51.929502 ], [ 4.4469608, 51.9296229 ] ], [ [ 4.4469608, 51.9296229 ], [ 4.4467294, 51.9296751 ], [ 4.4465081, 51.9297077 ], [ 4.4462281, 51.9297421 ], [ 4.445903, 51.929772 ] ], [ [ 4.445903, 51.929772 ], [ 4.4456879, 51.929799 ], [ 4.4451475, 51.9298373 ], [ 4.4446441, 51.9298715 ] ], [ [ 4.4446441, 51.9298715 ], [ 4.4444319, 51.9298906 ] ], [ [ 4.4444319, 51.9298906 ], [ 4.4442318, 51.9299072 ], [ 4.4440908, 51.9299165 ], [ 4.4439975, 51.9299243 ], [ 4.4434578, 51.9299652 ] ], [ [ 4.4434578, 51.9299652 ], [ 4.4429796, 51.9300203 ] ], [ [ 4.4429796, 51.9300203 ], [ 4.4426818, 51.930074 ], [ 4.4426004, 51.9300887 ] ], [ [ 4.4426004, 51.9300887 ], [ 4.4421727, 51.930166 ], [ 4.4420743, 51.9301838 ], [ 4.4420062, 51.9301957 ], [ 4.4418676, 51.9302282 ] ], [ [ 4.4418676, 51.9302282 ], [ 4.4416746, 51.9302851 ], [ 4.4415141, 51.9303326 ], [ 4.4413421, 51.930396 ], [ 4.4411808, 51.9304798 ] ], [ [ 4.4411808, 51.9304798 ], [ 4.4402131, 51.9310303 ] ], [ [ 4.4402131, 51.9310303 ], [ 4.4401168, 51.9310922 ], [ 4.4400607, 51.931136 ], [ 4.4399815, 51.9312313 ] ], [ [ 4.4399815, 51.9312313 ], [ 4.4398677, 51.9313683 ] ], [ [ 4.4398677, 51.9313683 ], [ 4.4398187, 51.9314324 ] ], [ [ 4.4398187, 51.9314324 ], [ 4.4396435, 51.9316473 ] ], [ [ 4.4396435, 51.9316473 ], [ 4.4395207, 51.9317861 ], [ 4.439382, 51.931895 ], [ 4.4391924, 51.9320101 ], [ 4.4389806, 51.9321134 ] ], [ [ 4.4389806, 51.9321134 ], [ 4.4389533, 51.932181 ], [ 4.4389534, 51.9322132 ], [ 4.4389698, 51.9322572 ], [ 4.4391128, 51.9324196 ], [ 4.4394284, 51.9326362 ], [ 4.4395246, 51.9327358 ], [ 4.4395855, 51.9328339 ], [ 4.4396628, 51.9329859 ], [ 4.4396935, 51.9331181 ], [ 4.4396641, 51.933326 ], [ 4.4396547, 51.9333717 ], [ 4.4392589, 51.9340308 ], [ 4.4391867, 51.9341414 ], [ 4.4390217, 51.9344226 ], [ 4.4389159, 51.9345872 ], [ 4.4385061, 51.9351545 ], [ 4.4383808, 51.9352959 ], [ 4.4383054, 51.9353866 ] ], [ [ 4.4383054, 51.9353866 ], [ 4.4382146, 51.9354809 ], [ 4.4381417, 51.9355565 ] ], [ [ 4.4381417, 51.9355565 ], [ 4.4371358, 51.9365536 ], [ 4.4370551, 51.9366111 ], [ 4.4370247, 51.9366328 ], [ 4.4369779, 51.9366625 ], [ 4.4368753, 51.9367257 ] ], [ [ 4.4368753, 51.9367257 ], [ 4.4368816, 51.9367379 ], [ 4.4368853, 51.9367505 ], [ 4.4368862, 51.9367633 ], [ 4.4368844, 51.936776 ], [ 4.4368799, 51.9367885 ], [ 4.4368727, 51.9368005 ], [ 4.4368601, 51.9368147 ], [ 4.4368438, 51.9368275 ], [ 4.4368242, 51.9368383 ], [ 4.436802, 51.936847 ], [ 4.4367778, 51.9368533 ], [ 4.4367521, 51.9368571 ], [ 4.4367259, 51.9368581 ], [ 4.4366997, 51.9368564 ], [ 4.4366744, 51.9368521 ], [ 4.4366505, 51.9368452 ] ], [ [ 4.4366505, 51.9368452 ], [ 4.4366338, 51.9368383 ], [ 4.4366187, 51.9368302 ], [ 4.4366054, 51.936821 ], [ 4.436594, 51.9368108 ], [ 4.4365849, 51.9367998 ], [ 4.4365781, 51.9367882 ], [ 4.4365738, 51.9367762 ], [ 4.4365719, 51.936764 ], [ 4.4365726, 51.9367518 ], [ 4.4365758, 51.9367397 ], [ 4.4365814, 51.9367279 ] ], [ [ 4.4365814, 51.9367279 ], [ 4.4365153, 51.9366694 ], [ 4.4364962, 51.9366524 ], [ 4.4364605, 51.9366272 ], [ 4.4363799, 51.9365609 ] ], [ [ 4.4343502, 51.9362335 ], [ 4.4344356, 51.9362579 ], [ 4.4345994, 51.9363048 ], [ 4.4347173, 51.9363353 ], [ 4.4348625, 51.9363498 ], [ 4.4348984, 51.9363534 ], [ 4.4349629, 51.9363638 ], [ 4.4350452, 51.9363763 ], [ 4.435355, 51.936415 ], [ 4.4354, 51.9364214 ], [ 4.4356714, 51.9364533 ], [ 4.43579, 51.9364708 ], [ 4.4359224, 51.936488 ], [ 4.4362273, 51.9365278 ], [ 4.4363167, 51.9365412 ], [ 4.4363799, 51.9365609 ] ], [ [ 4.4335304, 51.9360056 ], [ 4.4338477, 51.9360938 ], [ 4.4343502, 51.9362335 ] ], [ [ 4.432806, 51.935817 ], [ 4.4335304, 51.9360056 ] ], [ [ 4.4318489, 51.9355536 ], [ 4.4326687, 51.9357792 ], [ 4.432806, 51.935817 ] ], [ [ 4.4308465, 51.9353842 ], [ 4.4312794, 51.9354367 ], [ 4.4315777, 51.9354896 ], [ 4.4316673, 51.9355106 ], [ 4.4318489, 51.9355536 ] ], [ [ 4.4281046, 51.9351245 ], [ 4.4282361, 51.9351408 ], [ 4.4282921, 51.9351477 ], [ 4.4284362, 51.93517 ], [ 4.4289546, 51.9352362 ], [ 4.4291652, 51.9352584 ], [ 4.4294591, 51.9352941 ], [ 4.4295216, 51.935298 ], [ 4.4299695, 51.9353437 ], [ 4.4302942, 51.9353537 ], [ 4.4304167, 51.9353625 ], [ 4.4308465, 51.9353842 ] ], [ [ 4.4281046, 51.9351245 ], [ 4.4280624, 51.9352322 ], [ 4.4278272, 51.9358177 ], [ 4.4277727, 51.9359681 ], [ 4.4275644, 51.9364877 ], [ 4.4275443, 51.9365293 ], [ 4.4275143, 51.9365734 ], [ 4.4274927, 51.9366066 ], [ 4.4274645, 51.9366476 ] ], [ [ 4.4274645, 51.9366476 ], [ 4.4274861, 51.9366563 ], [ 4.4275046, 51.9366673 ], [ 4.4275192, 51.9366804 ], [ 4.4275294, 51.936695 ], [ 4.4275349, 51.9367105 ], [ 4.4275354, 51.9367264 ], [ 4.42753, 51.9367441 ], [ 4.4275184, 51.9367606 ], [ 4.4275012, 51.9367751 ], [ 4.4274793, 51.936787 ], [ 4.4274613, 51.9367936 ], [ 4.4274418, 51.9367983 ], [ 4.4274213, 51.936801 ], [ 4.4274004, 51.9368018 ] ], [ [ 4.4274004, 51.9368018 ], [ 4.427346, 51.9368393 ] ], [ [ 4.427346, 51.9368393 ], [ 4.4273035, 51.9368695 ], [ 4.427117, 51.937028 ], [ 4.4270683, 51.9370452 ] ], [ [ 4.4270683, 51.9370452 ], [ 4.426357, 51.9377056 ] ], [ [ 4.426357, 51.9377056 ], [ 4.4258017, 51.9382196 ], [ 4.4257632, 51.9382561 ], [ 4.4256801, 51.9383285 ] ], [ [ 4.4256801, 51.9383285 ], [ 4.4255383, 51.9384635 ], [ 4.4254616, 51.9385413 ], [ 4.4254277, 51.9385751 ], [ 4.424527, 51.9394156 ], [ 4.4244365, 51.9395016 ], [ 4.4243383, 51.9395954 ], [ 4.423911, 51.9400067 ], [ 4.423875, 51.940041 ], [ 4.4237385, 51.9401662 ] ], [ [ 4.4237385, 51.9401662 ], [ 4.4237184, 51.940237 ], [ 4.4236893, 51.9402742 ], [ 4.4236515, 51.9403036 ], [ 4.4236093, 51.9403285 ] ], [ [ 4.4236093, 51.9403285 ], [ 4.4236089, 51.9403468 ] ], [ [ 4.4216011, 51.9399531 ], [ 4.4216922, 51.9399429 ], [ 4.4222656, 51.9399006 ], [ 4.4223216, 51.9398991 ], [ 4.4223816, 51.9399037 ], [ 4.4224226, 51.9399112 ], [ 4.4224916, 51.9399372 ], [ 4.4225764, 51.9399704 ], [ 4.4226308, 51.9399901 ], [ 4.4227063, 51.9400234 ], [ 4.4228481, 51.9400854 ], [ 4.4229945, 51.9401421 ], [ 4.4234488, 51.940316 ], [ 4.4235528, 51.9403406 ], [ 4.4236089, 51.9403468 ] ], [ [ 4.4216011, 51.9399531 ], [ 4.4216204, 51.9400187 ], [ 4.4217639, 51.9405928 ] ], [ [ 4.4217639, 51.9405928 ], [ 4.4217635, 51.9406174 ] ], [ [ 4.4217635, 51.9406174 ], [ 4.4217652, 51.9406676 ] ], [ [ 4.4217652, 51.9406676 ], [ 4.4217616, 51.9406815 ] ], [ [ 4.4217616, 51.9406815 ], [ 4.4217327, 51.9408169 ], [ 4.4217059, 51.9409123 ], [ 4.4216649, 51.9410044 ], [ 4.4213664, 51.9416743 ], [ 4.4212681, 51.9418575 ], [ 4.4212397, 51.9419099 ], [ 4.4212328, 51.9419206 ], [ 4.42122, 51.9419404 ], [ 4.4211956, 51.9419694 ], [ 4.4209707, 51.9422071 ], [ 4.4207885, 51.9423771 ], [ 4.4205559, 51.9425769 ], [ 4.4200971, 51.9430205 ], [ 4.4200585, 51.9430683 ] ], [ [ 4.4200585, 51.9430683 ], [ 4.4200024, 51.9431256 ], [ 4.4198638, 51.9432627 ], [ 4.4197727, 51.9433371 ], [ 4.4197142, 51.9433696 ], [ 4.4193601, 51.9435633 ], [ 4.419076, 51.9437459 ], [ 4.4189943, 51.9438077 ], [ 4.4189067, 51.9438917 ], [ 4.4185613, 51.9442959 ], [ 4.4182844, 51.944631 ] ], [ [ 4.4182844, 51.944631 ], [ 4.4182481, 51.9446782 ], [ 4.4181956, 51.9447465 ] ], [ [ 4.4181956, 51.9447465 ], [ 4.4176908, 51.9453732 ], [ 4.4169882, 51.9461995 ], [ 4.4169613, 51.946232 ], [ 4.4167571, 51.9464598 ], [ 4.4164434, 51.9467337 ], [ 4.4160661, 51.9469998 ], [ 4.4158972, 51.9470945 ], [ 4.4156019, 51.9472602 ], [ 4.4148686, 51.9475885 ], [ 4.4142858, 51.9478384 ], [ 4.4139613, 51.9479789 ], [ 4.4138685, 51.948019 ], [ 4.4136391, 51.9481117 ], [ 4.4133735, 51.94823 ], [ 4.4129109, 51.9484754 ] ], [ [ 4.4129109, 51.9484754 ], [ 4.4128867, 51.9484881 ], [ 4.4126911, 51.9485873 ] ], [ [ 4.4126911, 51.9485873 ], [ 4.4124573, 51.9487058 ], [ 4.412049, 51.9489379 ] ], [ [ 4.412049, 51.9489379 ], [ 4.411718, 51.9491376 ], [ 4.4115801, 51.949216 ], [ 4.4113844, 51.9493271 ] ], [ [ 4.4113844, 51.9493271 ], [ 4.4106365, 51.9497778 ], [ 4.4103499, 51.9499545 ], [ 4.4100052, 51.9501794 ], [ 4.4097646, 51.9503461 ], [ 4.4095325, 51.9504992 ], [ 4.4093671, 51.9506055 ], [ 4.4091628, 51.9507291 ], [ 4.4086374, 51.9510044 ], [ 4.4082553, 51.9512001 ], [ 4.407953, 51.9513636 ], [ 4.4077989, 51.9514532 ], [ 4.4075815, 51.951594 ], [ 4.4072905, 51.951796 ], [ 4.4071688, 51.9518851 ], [ 4.4070187, 51.952005 ], [ 4.4070119, 51.952011 ], [ 4.4067713, 51.9522214 ], [ 4.4062671, 51.9526576 ], [ 4.4062002, 51.9527122 ], [ 4.4061471, 51.9527556 ], [ 4.4059142, 51.9529456 ], [ 4.4056709, 51.953127 ], [ 4.4055576, 51.9532046 ], [ 4.4053453, 51.9533503 ], [ 4.4052028, 51.9534418 ], [ 4.4046828, 51.9537771 ], [ 4.4046193, 51.9538164 ], [ 4.4043345, 51.9539929 ], [ 4.4041659, 51.9540912 ], [ 4.4040375, 51.95416 ], [ 4.4032108, 51.9545977 ], [ 4.4020913, 51.9551985 ], [ 4.4012869, 51.9555977 ], [ 4.4009425, 51.9557747 ], [ 4.4004834, 51.9560038 ], [ 4.4000839, 51.9562143 ], [ 4.3991468, 51.9567138 ], [ 4.3990012, 51.9567999 ] ], [ [ 4.3990012, 51.9567999 ], [ 4.3988985, 51.9568671 ], [ 4.3988374, 51.9569162 ], [ 4.3987642, 51.9569838 ], [ 4.3985386, 51.9572175 ], [ 4.3984273, 51.95733 ], [ 4.3983789, 51.957379 ], [ 4.3982394, 51.9575199 ] ], [ [ 4.3982394, 51.9575199 ], [ 4.3977075, 51.9580625 ], [ 4.3975532, 51.9582139 ], [ 4.3974188, 51.9583467 ], [ 4.3970619, 51.9586668 ], [ 4.3968688, 51.9588502 ], [ 4.3967525, 51.9589782 ], [ 4.3967066, 51.9590357 ], [ 4.3966676, 51.9591224 ], [ 4.3966355, 51.9591987 ], [ 4.3965938, 51.9592869 ], [ 4.3965544, 51.9593447 ] ], [ [ 4.3965544, 51.9593447 ], [ 4.396395, 51.959557 ], [ 4.3962404, 51.9597713 ] ], [ [ 4.3962404, 51.9597713 ], [ 4.3959494, 51.9600892 ] ], [ [ 4.3959494, 51.9600892 ], [ 4.3958441, 51.9602641 ], [ 4.395686, 51.9604925 ], [ 4.394822, 51.9617642 ], [ 4.3945283, 51.9620793 ], [ 4.3942169, 51.962396 ], [ 4.3940723, 51.9625656 ], [ 4.3940242, 51.9626224 ] ], [ [ 4.3940242, 51.9626224 ], [ 4.3940082, 51.9626404 ] ], [ [ 4.3940082, 51.9626404 ], [ 4.3939921, 51.9626577 ] ], [ [ 4.3939921, 51.9626577 ], [ 4.3939431, 51.9627059 ], [ 4.3934087, 51.9632909 ], [ 4.3933316, 51.9633802 ] ], [ [ 4.3933316, 51.9633802 ], [ 4.3931868, 51.9635602 ], [ 4.3929974, 51.9637979 ] ], [ [ 4.3929974, 51.9637979 ], [ 4.3929433, 51.9638726 ] ], [ [ 4.3929433, 51.9638726 ], [ 4.3927491, 51.9641471 ], [ 4.3927124, 51.9641989 ], [ 4.3926718, 51.9642535 ], [ 4.392625, 51.9643176 ], [ 4.3924844, 51.9645281 ], [ 4.392384, 51.9646968 ] ], [ [ 4.392384, 51.9646968 ], [ 4.3923058, 51.9648232 ], [ 4.392224, 51.9649616 ], [ 4.3921421, 51.9651192 ], [ 4.3920733, 51.9652393 ], [ 4.3920078, 51.965339 ], [ 4.3919248, 51.9654509 ], [ 4.391832, 51.9655726 ], [ 4.3914694, 51.9660768 ], [ 4.3904148, 51.9673795 ], [ 4.3900626, 51.9678219 ], [ 4.3900291, 51.967864 ], [ 4.3899339, 51.9679807 ], [ 4.3896031, 51.968386 ], [ 4.389515, 51.9685276 ], [ 4.3894082, 51.9686861 ], [ 4.3890376, 51.9692071 ], [ 4.3889188, 51.9693573 ], [ 4.3887578, 51.9695584 ], [ 4.3883258, 51.9700669 ], [ 4.3881744, 51.970251 ], [ 4.3877952, 51.9707255 ], [ 4.3874406, 51.9711934 ], [ 4.3872083, 51.9715069 ], [ 4.3870745, 51.9716863 ], [ 4.3869389, 51.9718796 ], [ 4.3868031, 51.9720897 ], [ 4.3866965, 51.9722546 ], [ 4.3865282, 51.9725066 ], [ 4.3862107, 51.9729149 ], [ 4.3857725, 51.9734559 ], [ 4.3855807, 51.9736682 ], [ 4.3853054, 51.9739901 ], [ 4.3850832, 51.9742704 ], [ 4.3846746, 51.9748347 ], [ 4.3844255, 51.975187 ], [ 4.3842873, 51.9753848 ], [ 4.3839507, 51.9759113 ], [ 4.3838124, 51.9761321 ], [ 4.3836683, 51.9763704 ], [ 4.3834638, 51.9766811 ], [ 4.3832279, 51.9770032 ] ], [ [ 4.3832279, 51.9770032 ], [ 4.3829333, 51.9773932 ], [ 4.3826382, 51.9777852 ], [ 4.3820409, 51.9786252 ], [ 4.381598, 51.9792 ], [ 4.3813043, 51.979583 ], [ 4.3804379, 51.9806658 ], [ 4.3802914, 51.9808462 ], [ 4.3799216, 51.9813082 ], [ 4.379878, 51.9813646 ], [ 4.3796892, 51.9815967 ], [ 4.3795002, 51.9818368 ], [ 4.3791311, 51.9823808 ], [ 4.3791278, 51.9823857 ], [ 4.37879, 51.9829651 ], [ 4.3777671, 51.9845865 ], [ 4.3777155, 51.9846708 ], [ 4.3776481, 51.984786 ], [ 4.3775683, 51.9849185 ] ], [ [ 4.3775683, 51.9849185 ], [ 4.3774416, 51.9851122 ], [ 4.3769802, 51.985804 ], [ 4.3765748, 51.9864208 ], [ 4.3765528, 51.9864561 ], [ 4.376365, 51.9867568 ] ], [ [ 4.376365, 51.9867568 ], [ 4.3765573, 51.9868101 ], [ 4.3765972, 51.9868278 ], [ 4.3767566, 51.9868987 ] ], [ [ 4.3800493, 51.9877711 ], [ 4.3799691, 51.9877473 ], [ 4.3796238, 51.9876571 ], [ 4.379303, 51.9875718 ], [ 4.3790463, 51.9875035 ], [ 4.3787725, 51.9874312 ], [ 4.3786039, 51.9873867 ], [ 4.3776449, 51.9871334 ], [ 4.3767566, 51.9868987 ] ], [ [ 4.3800493, 51.9877711 ], [ 4.3802337, 51.987803 ], [ 4.3803442, 51.9878326 ], [ 4.3804167, 51.9878522 ], [ 4.3806038, 51.9878996 ], [ 4.380709, 51.9879475 ] ], [ [ 4.3822802, 51.9883639 ], [ 4.3822533, 51.9883559 ], [ 4.3820915, 51.988312 ], [ 4.3814204, 51.9881335 ], [ 4.3808863, 51.9879938 ], [ 4.380709, 51.9879475 ] ], [ [ 4.3822802, 51.9883639 ], [ 4.3822223, 51.9884424 ], [ 4.3821524, 51.9885425 ], [ 4.381817, 51.9890342 ], [ 4.3817951, 51.9890657 ], [ 4.3806582, 51.9907043 ], [ 4.3802544, 51.9912888 ], [ 4.3802203, 51.9913382 ], [ 4.3801854, 51.9913887 ], [ 4.3799019, 51.9917954 ], [ 4.3798086, 51.9919396 ] ], [ [ 4.3798086, 51.9919396 ], [ 4.3794865, 51.9923926 ], [ 4.3789508, 51.9931722 ], [ 4.3784094, 51.9939524 ], [ 4.3783316, 51.994066 ], [ 4.3773358, 51.9955108 ] ], [ [ 4.3773358, 51.9955108 ], [ 4.3773028, 51.9955535 ], [ 4.3772182, 51.9956606 ], [ 4.3771681, 51.9957097 ], [ 4.3770505, 51.9958207 ], [ 4.3769773, 51.995881 ], [ 4.3768563, 51.9959725 ], [ 4.376812, 51.996006 ], [ 4.3764966, 51.9962441 ], [ 4.3761626, 51.9965029 ], [ 4.3760728, 51.9965732 ], [ 4.3759685, 51.9966634 ], [ 4.3758364, 51.9967975 ], [ 4.3758174, 51.9968229 ], [ 4.3757447, 51.9969197 ], [ 4.3757349, 51.9969328 ], [ 4.3756708, 51.9970235 ], [ 4.3752112, 51.9976879 ], [ 4.3743748, 51.9988881 ], [ 4.3741506, 51.9992085 ], [ 4.3741053, 51.9992768 ], [ 4.3738058, 51.9997006 ], [ 4.3737524, 51.9997785 ], [ 4.3735981, 52.0000018 ], [ 4.3733733, 52.0003214 ], [ 4.3727279, 52.0012434 ], [ 4.3725575, 52.0014933 ], [ 4.3725262, 52.0015366 ], [ 4.3720779, 52.0021766 ], [ 4.3720584, 52.0022042 ], [ 4.3720076, 52.0022913 ] ], [ [ 4.3720076, 52.0022913 ], [ 4.3717822, 52.0026277 ], [ 4.3714576, 52.0030978 ], [ 4.3713776, 52.0032134 ] ], [ [ 4.3713776, 52.0032134 ], [ 4.371277, 52.0033586 ] ], [ [ 4.371277, 52.0033586 ], [ 4.3711093, 52.0036009 ] ], [ [ 4.3711093, 52.0036009 ], [ 4.3707187, 52.0041584 ], [ 4.3705982, 52.0043305 ], [ 4.3705424, 52.0043955 ], [ 4.3705251, 52.0044157 ], [ 4.370482, 52.0044472 ], [ 4.3704272, 52.004489 ] ], [ [ 4.3704272, 52.004489 ], [ 4.3698047, 52.0048057 ], [ 4.3694533, 52.0049832 ], [ 4.3693009, 52.00506 ], [ 4.3691991, 52.0051233 ], [ 4.3691477, 52.0051649 ], [ 4.3691012, 52.0052027 ], [ 4.3690571, 52.0052497 ], [ 4.369021, 52.0052864 ] ], [ [ 4.369021, 52.0052864 ], [ 4.3689794, 52.0053379 ], [ 4.3689458, 52.0053795 ], [ 4.3688341, 52.0055124 ], [ 4.3687718, 52.0055637 ], [ 4.3686905, 52.0056135 ], [ 4.3683275, 52.0058219 ], [ 4.3681313, 52.0059352 ], [ 4.3679126, 52.0060461 ], [ 4.3678488, 52.0060791 ], [ 4.3677522, 52.0061199 ], [ 4.3676484, 52.0061527 ] ], [ [ 4.3675553, 52.0061843 ], [ 4.3676484, 52.0061527 ] ], [ [ 4.3675553, 52.0061843 ], [ 4.3673579, 52.0062467 ], [ 4.367227, 52.0062887 ], [ 4.3670791, 52.0063487 ], [ 4.3669706, 52.006401 ], [ 4.3668863, 52.0064478 ] ], [ [ 4.3668863, 52.0064478 ], [ 4.3667956, 52.0065233 ], [ 4.3667054, 52.0066138 ], [ 4.3666113, 52.0067322 ], [ 4.3663926, 52.0069857 ], [ 4.3661976, 52.0072443 ], [ 4.3660422, 52.0074607 ] ], [ [ 4.3660422, 52.0074607 ], [ 4.365626, 52.0079791 ] ], [ [ 4.365626, 52.0079791 ], [ 4.3653334, 52.0083575 ], [ 4.365238, 52.0084511 ], [ 4.3651605, 52.0084967 ], [ 4.3651111, 52.0085144 ], [ 4.3650378, 52.0085348 ], [ 4.3649522, 52.008549 ] ], [ [ 4.3649522, 52.008549 ], [ 4.3649047, 52.0085533 ], [ 4.3648531, 52.0085544 ], [ 4.3647827, 52.008547 ] ], [ [ 4.3647827, 52.008547 ], [ 4.3646833, 52.0085501 ], [ 4.3646576, 52.0085474 ], [ 4.3645621, 52.0085222 ], [ 4.3644772, 52.0084897 ], [ 4.3643466, 52.0084328 ], [ 4.3636001, 52.0081179 ], [ 4.3634944, 52.0080734 ], [ 4.363445, 52.0080343 ] ], [ [ 4.363445, 52.0080343 ], [ 4.3633155, 52.0079799 ], [ 4.3632647, 52.0079459 ], [ 4.3632193, 52.0079081 ], [ 4.3631903, 52.0078728 ], [ 4.363164, 52.0078271 ], [ 4.3631551, 52.0077993 ], [ 4.3631385, 52.0077307 ], [ 4.363124, 52.0076205 ], [ 4.3631154, 52.0075866 ], [ 4.36309, 52.0074856 ] ], [ [ 4.36309, 52.0074856 ], [ 4.3630228, 52.0073716 ], [ 4.3629987, 52.0073203 ], [ 4.3629575, 52.0072319 ] ], [ [ 4.3629575, 52.0072319 ], [ 4.3628053, 52.0069342 ], [ 4.3627239, 52.0068256 ], [ 4.3626284, 52.006721 ], [ 4.3624762, 52.0065865 ], [ 4.3623241, 52.0064833 ], [ 4.3621375, 52.0063763 ], [ 4.3619437, 52.0062845 ] ], [ [ 4.3619437, 52.0062845 ], [ 4.3617278, 52.0062069 ], [ 4.3614582, 52.0061026 ], [ 4.3612046, 52.0060045 ] ], [ [ 4.3612046, 52.0060045 ], [ 4.361056, 52.005953 ] ], [ [ 4.361056, 52.005953 ], [ 4.360887, 52.0058943 ] ], [ [ 4.360887, 52.0058943 ], [ 4.3606579, 52.0058085 ] ], [ [ 4.3606579, 52.0058085 ], [ 4.3600172, 52.0055285 ], [ 4.3598464, 52.005454 ] ], [ [ 4.3598464, 52.005454 ], [ 4.3596911, 52.0053859 ], [ 4.3596325, 52.005359 ] ], [ [ 4.3596325, 52.005359 ], [ 4.3595616, 52.0053611 ], [ 4.3594949, 52.0053641 ], [ 4.3594342, 52.0053738 ], [ 4.3593744, 52.0053886 ], [ 4.3593243, 52.0054026 ], [ 4.3592387, 52.0054377 ], [ 4.3591849, 52.0054614 ], [ 4.3591526, 52.0054768 ] ], [ [ 4.3579661, 52.0068834 ], [ 4.3580248, 52.006814 ], [ 4.3585991, 52.0061224 ], [ 4.3588413, 52.005834 ], [ 4.3590516, 52.0055838 ], [ 4.3590832, 52.0055491 ], [ 4.3591526, 52.0054768 ] ], [ [ 4.3579661, 52.0068834 ], [ 4.3579427, 52.0068727 ], [ 4.3579085, 52.0068536 ], [ 4.3578876, 52.0068425 ] ], [ [ 4.3578876, 52.0068425 ], [ 4.3576854, 52.0067432 ], [ 4.3576253, 52.0067129 ] ], [ [ 4.3576253, 52.0067129 ], [ 4.3575984, 52.0066994 ], [ 4.357521, 52.0066588 ], [ 4.3574045, 52.0065977 ] ], [ [ 4.3574045, 52.0065977 ], [ 4.3573372, 52.006565 ] ], [ [ 4.3573372, 52.006565 ], [ 4.3572916, 52.0065422 ], [ 4.357264, 52.0065284 ] ], [ [ 4.357264, 52.0065284 ], [ 4.3571924, 52.006535 ], [ 4.3571491, 52.0065527 ], [ 4.3571042, 52.0065693 ], [ 4.3570757, 52.0065914 ], [ 4.3570345, 52.0066221 ], [ 4.3568847, 52.00682 ] ] ] } },
{ "type": "Feature", "properties": { "fid": 46, "full_id": "r4553216", "osm_id": "4553216", "osm_type": "relation", "route": "bus", "start_date": null, "direction": null, "segment": null, "description": null, "name:en": null, "ref_trips": null, "name:nl": null, "name:fr": null, "name:de": null, "gtfs:trip_id:sample": null, "gtfs:shape_id": null, "gtfs:route_id": null, "gtfs:feed": null, "colour:text": null, "roundtrip": null, "network:website": null, "website": null, "network:wikipedia": null, "service": null, "operator:wikipedia": null, "colour": null, "via": null, "wikipedia": "nl:Buslijn 40 (Rotterdam)", "wikidata": "Q4921521", "type": "route", "to": "Rotterdam, Rotterdam Centraal", "ref": "40", "public_transport:version": "2", "operator:wikidata": "Q839557", "operator": "RET", "network:wikidata": "Q108716132", "network": "Bus Rotterdam", "name": "Bus 40: Delft Station Delft => Rotterdam Centraal", "from": "Delft, Station Delft", "brand:wikidata": null, "brand": null }, "geometry": { "type": "MultiLineString", "coordinates": [ [ [ 4.3568847, 52.00682 ], [ 4.3568742, 52.0068337 ], [ 4.3568703, 52.0068426 ], [ 4.3568593, 52.0068662 ], [ 4.3568588, 52.0068891 ], [ 4.3568751, 52.006917 ], [ 4.3568962, 52.0069397 ], [ 4.3569577, 52.0069693 ] ], [ [ 4.3569577, 52.0069693 ], [ 4.3570185, 52.0070006 ] ], [ [ 4.3570185, 52.0070006 ], [ 4.3571009, 52.0070495 ] ], [ [ 4.3571009, 52.0070495 ], [ 4.3572227, 52.0071121 ], [ 4.3572714, 52.0071359 ] ], [ [ 4.3572714, 52.0071359 ], [ 4.3575394, 52.0072585 ] ], [ [ 4.3575394, 52.0072585 ], [ 4.3575451, 52.0072611 ], [ 4.3575718, 52.0072731 ], [ 4.3575958, 52.0072839 ], [ 4.3576191, 52.0072939 ] ], [ [ 4.3579661, 52.0068834 ], [ 4.3578982, 52.0069613 ], [ 4.3578318, 52.0070382 ], [ 4.3576191, 52.0072939 ] ], [ [ 4.3579661, 52.0068834 ], [ 4.3580248, 52.006814 ], [ 4.3585991, 52.0061224 ], [ 4.3588413, 52.005834 ], [ 4.3590516, 52.0055838 ], [ 4.3590832, 52.0055491 ], [ 4.3591526, 52.0054768 ] ], [ [ 4.3596325, 52.005359 ], [ 4.3595616, 52.0053611 ], [ 4.3594949, 52.0053641 ], [ 4.3594342, 52.0053738 ], [ 4.3593744, 52.0053886 ], [ 4.3593243, 52.0054026 ], [ 4.3592387, 52.0054377 ], [ 4.3591849, 52.0054614 ], [ 4.3591526, 52.0054768 ] ], [ [ 4.3596325, 52.005359 ], [ 4.3598326, 52.0053837 ], [ 4.3598989, 52.005388 ], [ 4.3599739, 52.0053902 ] ], [ [ 4.3599739, 52.0053902 ], [ 4.3601022, 52.0054459 ], [ 4.360238, 52.0055048 ], [ 4.3609544, 52.0058104 ] ], [ [ 4.3609544, 52.0058104 ], [ 4.3611177, 52.0058752 ] ], [ [ 4.3611177, 52.0058752 ], [ 4.3612717, 52.0059321 ], [ 4.3614377, 52.0059957 ], [ 4.3619597, 52.0062065 ], [ 4.3622142, 52.0063226 ], [ 4.3624276, 52.0064306 ], [ 4.3626021, 52.0065577 ] ], [ [ 4.3626021, 52.0065577 ], [ 4.3626477, 52.0066204 ], [ 4.3626839, 52.0066661 ], [ 4.3628134, 52.0068119 ], [ 4.3628556, 52.0068664 ], [ 4.3629298, 52.0069781 ], [ 4.362969, 52.0070559 ], [ 4.3629831, 52.0071198 ], [ 4.362967, 52.0071966 ], [ 4.3629575, 52.0072319 ] ], [ [ 4.36309, 52.0074856 ], [ 4.3630228, 52.0073716 ], [ 4.3629987, 52.0073203 ], [ 4.3629575, 52.0072319 ] ], [ [ 4.363445, 52.0080343 ], [ 4.3633155, 52.0079799 ], [ 4.3632647, 52.0079459 ], [ 4.3632193, 52.0079081 ], [ 4.3631903, 52.0078728 ], [ 4.363164, 52.0078271 ], [ 4.3631551, 52.0077993 ], [ 4.3631385, 52.0077307 ], [ 4.363124, 52.0076205 ], [ 4.3631154, 52.0075866 ], [ 4.36309, 52.0074856 ] ], [ [ 4.363445, 52.0080343 ], [ 4.363517, 52.0080467 ], [ 4.364334, 52.0083913 ], [ 4.3644182, 52.008427 ], [ 4.3645003, 52.0084593 ], [ 4.3645994, 52.0084903 ], [ 4.3646759, 52.0085091 ], [ 4.3647045, 52.0085162 ], [ 4.3647827, 52.008547 ] ], [ [ 4.3649522, 52.008549 ], [ 4.3649047, 52.0085533 ], [ 4.3648531, 52.0085544 ], [ 4.3647827, 52.008547 ] ], [ [ 4.365626, 52.0079791 ], [ 4.3653334, 52.0083575 ], [ 4.365238, 52.0084511 ], [ 4.3651605, 52.0084967 ], [ 4.3651111, 52.0085144 ], [ 4.3650378, 52.0085348 ], [ 4.3649522, 52.008549 ] ], [ [ 4.3660422, 52.0074607 ], [ 4.365626, 52.0079791 ] ], [ [ 4.3668863, 52.0064478 ], [ 4.3667956, 52.0065233 ], [ 4.3667054, 52.0066138 ], [ 4.3666113, 52.0067322 ], [ 4.3663926, 52.0069857 ], [ 4.3661976, 52.0072443 ], [ 4.3660422, 52.0074607 ] ], [ [ 4.3675553, 52.0061843 ], [ 4.3673579, 52.0062467 ], [ 4.367227, 52.0062887 ], [ 4.3670791, 52.0063487 ], [ 4.3669706, 52.006401 ], [ 4.3668863, 52.0064478 ] ], [ [ 4.3675553, 52.0061843 ], [ 4.3676484, 52.0061527 ] ], [ [ 4.369021, 52.0052864 ], [ 4.3689794, 52.0053379 ], [ 4.3689458, 52.0053795 ], [ 4.3688341, 52.0055124 ], [ 4.3687718, 52.0055637 ], [ 4.3686905, 52.0056135 ], [ 4.3683275, 52.0058219 ], [ 4.3681313, 52.0059352 ], [ 4.3679126, 52.0060461 ], [ 4.3678488, 52.0060791 ], [ 4.3677522, 52.0061199 ], [ 4.3676484, 52.0061527 ] ], [ [ 4.3704272, 52.004489 ], [ 4.3698047, 52.0048057 ], [ 4.3694533, 52.0049832 ], [ 4.3693009, 52.00506 ], [ 4.3691991, 52.0051233 ], [ 4.3691477, 52.0051649 ], [ 4.3691012, 52.0052027 ], [ 4.3690571, 52.0052497 ], [ 4.369021, 52.0052864 ] ], [ [ 4.3711093, 52.0036009 ], [ 4.3707187, 52.0041584 ], [ 4.3705982, 52.0043305 ], [ 4.3705424, 52.0043955 ], [ 4.3705251, 52.0044157 ], [ 4.370482, 52.0044472 ], [ 4.3704272, 52.004489 ] ], [ [ 4.371277, 52.0033586 ], [ 4.3711093, 52.0036009 ] ], [ [ 4.3713776, 52.0032134 ], [ 4.371277, 52.0033586 ] ], [ [ 4.3720076, 52.0022913 ], [ 4.3717822, 52.0026277 ], [ 4.3714576, 52.0030978 ], [ 4.3713776, 52.0032134 ] ], [ [ 4.3773358, 51.9955108 ], [ 4.3773028, 51.9955535 ], [ 4.3772182, 51.9956606 ], [ 4.3771681, 51.9957097 ], [ 4.3770505, 51.9958207 ], [ 4.3769773, 51.995881 ], [ 4.3768563, 51.9959725 ], [ 4.376812, 51.996006 ], [ 4.3764966, 51.9962441 ], [ 4.3761626, 51.9965029 ], [ 4.3760728, 51.9965732 ], [ 4.3759685, 51.9966634 ], [ 4.3758364, 51.9967975 ], [ 4.3758174, 51.9968229 ], [ 4.3757447, 51.9969197 ], [ 4.3757349, 51.9969328 ], [ 4.3756708, 51.9970235 ], [ 4.3752112, 51.9976879 ], [ 4.3743748, 51.9988881 ], [ 4.3741506, 51.9992085 ], [ 4.3741053, 51.9992768 ], [ 4.3738058, 51.9997006 ], [ 4.3737524, 51.9997785 ], [ 4.3735981, 52.0000018 ], [ 4.3733733, 52.0003214 ], [ 4.3727279, 52.0012434 ], [ 4.3725575, 52.0014933 ], [ 4.3725262, 52.0015366 ], [ 4.3720779, 52.0021766 ], [ 4.3720584, 52.0022042 ], [ 4.3720076, 52.0022913 ] ], [ [ 4.3798086, 51.9919396 ], [ 4.3794865, 51.9923926 ], [ 4.3789508, 51.9931722 ], [ 4.3784094, 51.9939524 ], [ 4.3783316, 51.994066 ], [ 4.3773358, 51.9955108 ] ], [ [ 4.3822802, 51.9883639 ], [ 4.3822223, 51.9884424 ], [ 4.3821524, 51.9885425 ], [ 4.381817, 51.9890342 ], [ 4.3817951, 51.9890657 ], [ 4.3806582, 51.9907043 ], [ 4.3802544, 51.9912888 ], [ 4.3802203, 51.9913382 ], [ 4.3801854, 51.9913887 ], [ 4.3799019, 51.9917954 ], [ 4.3798086, 51.9919396 ] ], [ [ 4.3822802, 51.9883639 ], [ 4.3822533, 51.9883559 ], [ 4.3820915, 51.988312 ], [ 4.3814204, 51.9881335 ], [ 4.3808863, 51.9879938 ], [ 4.380709, 51.9879475 ] ], [ [ 4.380709, 51.9879475 ], [ 4.3805852, 51.9879428 ], [ 4.3803844, 51.9879001 ], [ 4.3803025, 51.9878768 ], [ 4.3802072, 51.9878433 ], [ 4.3800493, 51.9877711 ] ], [ [ 4.3800493, 51.9877711 ], [ 4.3799691, 51.9877473 ], [ 4.3796238, 51.9876571 ], [ 4.379303, 51.9875718 ], [ 4.3790463, 51.9875035 ], [ 4.3787725, 51.9874312 ], [ 4.3786039, 51.9873867 ], [ 4.3776449, 51.9871334 ], [ 4.3767566, 51.9868987 ] ], [ [ 4.3767566, 51.9868987 ], [ 4.3765582, 51.9868743 ], [ 4.3765091, 51.9868682 ], [ 4.3763206, 51.9868255 ] ], [ [ 4.376365, 51.9867568 ], [ 4.3763206, 51.9868255 ] ], [ [ 4.3775683, 51.9849185 ], [ 4.3774416, 51.9851122 ], [ 4.3769802, 51.985804 ], [ 4.3765748, 51.9864208 ], [ 4.3765528, 51.9864561 ], [ 4.376365, 51.9867568 ] ], [ [ 4.3832279, 51.9770032 ], [ 4.3829333, 51.9773932 ], [ 4.3826382, 51.9777852 ], [ 4.3820409, 51.9786252 ], [ 4.381598, 51.9792 ], [ 4.3813043, 51.979583 ], [ 4.3804379, 51.9806658 ], [ 4.3802914, 51.9808462 ], [ 4.3799216, 51.9813082 ], [ 4.379878, 51.9813646 ], [ 4.3796892, 51.9815967 ], [ 4.3795002, 51.9818368 ], [ 4.3791311, 51.9823808 ], [ 4.3791278, 51.9823857 ], [ 4.37879, 51.9829651 ], [ 4.3777671, 51.9845865 ], [ 4.3777155, 51.9846708 ], [ 4.3776481, 51.984786 ], [ 4.3775683, 51.9849185 ] ], [ [ 4.392384, 51.9646968 ], [ 4.3923058, 51.9648232 ], [ 4.392224, 51.9649616 ], [ 4.3921421, 51.9651192 ], [ 4.3920733, 51.9652393 ], [ 4.3920078, 51.965339 ], [ 4.3919248, 51.9654509 ], [ 4.391832, 51.9655726 ], [ 4.3914694, 51.9660768 ], [ 4.3904148, 51.9673795 ], [ 4.3900626, 51.9678219 ], [ 4.3900291, 51.967864 ], [ 4.3899339, 51.9679807 ], [ 4.3896031, 51.968386 ], [ 4.389515, 51.9685276 ], [ 4.3894082, 51.9686861 ], [ 4.3890376, 51.9692071 ], [ 4.3889188, 51.9693573 ], [ 4.3887578, 51.9695584 ], [ 4.3883258, 51.9700669 ], [ 4.3881744, 51.970251 ], [ 4.3877952, 51.9707255 ], [ 4.3874406, 51.9711934 ], [ 4.3872083, 51.9715069 ], [ 4.3870745, 51.9716863 ], [ 4.3869389, 51.9718796 ], [ 4.3868031, 51.9720897 ], [ 4.3866965, 51.9722546 ], [ 4.3865282, 51.9725066 ], [ 4.3862107, 51.9729149 ], [ 4.3857725, 51.9734559 ], [ 4.3855807, 51.9736682 ], [ 4.3853054, 51.9739901 ], [ 4.3850832, 51.9742704 ], [ 4.3846746, 51.9748347 ], [ 4.3844255, 51.975187 ], [ 4.3842873, 51.9753848 ], [ 4.3839507, 51.9759113 ], [ 4.3838124, 51.9761321 ], [ 4.3836683, 51.9763704 ], [ 4.3834638, 51.9766811 ], [ 4.3832279, 51.9770032 ] ], [ [ 4.3929433, 51.9638726 ], [ 4.3927491, 51.9641471 ], [ 4.3927124, 51.9641989 ], [ 4.3926718, 51.9642535 ], [ 4.392625, 51.9643176 ], [ 4.3924844, 51.9645281 ], [ 4.392384, 51.9646968 ] ], [ [ 4.3929974, 51.9637979 ], [ 4.3929433, 51.9638726 ] ], [ [ 4.3933316, 51.9633802 ], [ 4.3931868, 51.9635602 ], [ 4.3929974, 51.9637979 ] ], [ [ 4.3939921, 51.9626577 ], [ 4.3939431, 51.9627059 ], [ 4.3934087, 51.9632909 ], [ 4.3933316, 51.9633802 ] ], [ [ 4.3940082, 51.9626404 ], [ 4.3939921, 51.9626577 ] ], [ [ 4.3940242, 51.9626224 ], [ 4.3940082, 51.9626404 ] ], [ [ 4.3959494, 51.9600892 ], [ 4.3958441, 51.9602641 ], [ 4.395686, 51.9604925 ], [ 4.394822, 51.9617642 ], [ 4.3945283, 51.9620793 ], [ 4.3942169, 51.962396 ], [ 4.3940723, 51.9625656 ], [ 4.3940242, 51.9626224 ] ], [ [ 4.3962404, 51.9597713 ], [ 4.3959494, 51.9600892 ] ], [ [ 4.3965544, 51.9593447 ], [ 4.396395, 51.959557 ], [ 4.3962404, 51.9597713 ] ], [ [ 4.3982394, 51.9575199 ], [ 4.3977075, 51.9580625 ], [ 4.3975532, 51.9582139 ], [ 4.3974188, 51.9583467 ], [ 4.3970619, 51.9586668 ], [ 4.3968688, 51.9588502 ], [ 4.3967525, 51.9589782 ], [ 4.3967066, 51.9590357 ], [ 4.3966676, 51.9591224 ], [ 4.3966355, 51.9591987 ], [ 4.3965938, 51.9592869 ], [ 4.3965544, 51.9593447 ] ], [ [ 4.3990012, 51.9567999 ], [ 4.3988985, 51.9568671 ], [ 4.3988374, 51.9569162 ], [ 4.3987642, 51.9569838 ], [ 4.3985386, 51.9572175 ], [ 4.3984273, 51.95733 ], [ 4.3983789, 51.957379 ], [ 4.3982394, 51.9575199 ] ], [ [ 4.4113844, 51.9493271 ], [ 4.4106365, 51.9497778 ], [ 4.4103499, 51.9499545 ], [ 4.4100052, 51.9501794 ], [ 4.4097646, 51.9503461 ], [ 4.4095325, 51.9504992 ], [ 4.4093671, 51.9506055 ], [ 4.4091628, 51.9507291 ], [ 4.4086374, 51.9510044 ], [ 4.4082553, 51.9512001 ], [ 4.407953, 51.9513636 ], [ 4.4077989, 51.9514532 ], [ 4.4075815, 51.951594 ], [ 4.4072905, 51.951796 ], [ 4.4071688, 51.9518851 ], [ 4.4070187, 51.952005 ], [ 4.4070119, 51.952011 ], [ 4.4067713, 51.9522214 ], [ 4.4062671, 51.9526576 ], [ 4.4062002, 51.9527122 ], [ 4.4061471, 51.9527556 ], [ 4.4059142, 51.9529456 ], [ 4.4056709, 51.953127 ], [ 4.4055576, 51.9532046 ], [ 4.4053453, 51.9533503 ], [ 4.4052028, 51.9534418 ], [ 4.4046828, 51.9537771 ], [ 4.4046193, 51.9538164 ], [ 4.4043345, 51.9539929 ], [ 4.4041659, 51.9540912 ], [ 4.4040375, 51.95416 ], [ 4.4032108, 51.9545977 ], [ 4.4020913, 51.9551985 ], [ 4.4012869, 51.9555977 ], [ 4.4009425, 51.9557747 ], [ 4.4004834, 51.9560038 ], [ 4.4000839, 51.9562143 ], [ 4.3991468, 51.9567138 ], [ 4.3990012, 51.9567999 ] ], [ [ 4.412049, 51.9489379 ], [ 4.411718, 51.9491376 ], [ 4.4115801, 51.949216 ], [ 4.4113844, 51.9493271 ] ], [ [ 4.4126911, 51.9485873 ], [ 4.4124573, 51.9487058 ], [ 4.412049, 51.9489379 ] ], [ [ 4.4129109, 51.9484754 ], [ 4.4128867, 51.9484881 ], [ 4.4126911, 51.9485873 ] ], [ [ 4.4181956, 51.9447465 ], [ 4.4176908, 51.9453732 ], [ 4.4169882, 51.9461995 ], [ 4.4169613, 51.946232 ], [ 4.4167571, 51.9464598 ], [ 4.4164434, 51.9467337 ], [ 4.4160661, 51.9469998 ], [ 4.4158972, 51.9470945 ], [ 4.4156019, 51.9472602 ], [ 4.4148686, 51.9475885 ], [ 4.4142858, 51.9478384 ], [ 4.4139613, 51.9479789 ], [ 4.4138685, 51.948019 ], [ 4.4136391, 51.9481117 ], [ 4.4133735, 51.94823 ], [ 4.4129109, 51.9484754 ] ], [ [ 4.4182844, 51.944631 ], [ 4.4182481, 51.9446782 ], [ 4.4181956, 51.9447465 ] ], [ [ 4.4200585, 51.9430683 ], [ 4.4200024, 51.9431256 ], [ 4.4198638, 51.9432627 ], [ 4.4197727, 51.9433371 ], [ 4.4197142, 51.9433696 ], [ 4.4193601, 51.9435633 ], [ 4.419076, 51.9437459 ], [ 4.4189943, 51.9438077 ], [ 4.4189067, 51.9438917 ], [ 4.4185613, 51.9442959 ], [ 4.4182844, 51.944631 ] ], [ [ 4.4217616, 51.9406815 ], [ 4.4217327, 51.9408169 ], [ 4.4217059, 51.9409123 ], [ 4.4216649, 51.9410044 ], [ 4.4213664, 51.9416743 ], [ 4.4212681, 51.9418575 ], [ 4.4212397, 51.9419099 ], [ 4.4212328, 51.9419206 ], [ 4.42122, 51.9419404 ], [ 4.4211956, 51.9419694 ], [ 4.4209707, 51.9422071 ], [ 4.4207885, 51.9423771 ], [ 4.4205559, 51.9425769 ], [ 4.4200971, 51.9430205 ], [ 4.4200585, 51.9430683 ] ], [ [ 4.4217652, 51.9406676 ], [ 4.4217616, 51.9406815 ] ], [ [ 4.4217635, 51.9406174 ], [ 4.4217652, 51.9406676 ] ], [ [ 4.4217639, 51.9405928 ], [ 4.4217635, 51.9406174 ] ], [ [ 4.4216011, 51.9399531 ], [ 4.4216204, 51.9400187 ], [ 4.4217639, 51.9405928 ] ], [ [ 4.4216011, 51.9399531 ], [ 4.4216922, 51.9399429 ], [ 4.4222656, 51.9399006 ], [ 4.4223216, 51.9398991 ], [ 4.4223816, 51.9399037 ], [ 4.4224226, 51.9399112 ], [ 4.4224916, 51.9399372 ], [ 4.4225764, 51.9399704 ], [ 4.4226308, 51.9399901 ], [ 4.4227063, 51.9400234 ], [ 4.4228481, 51.9400854 ], [ 4.4229945, 51.9401421 ], [ 4.4234488, 51.940316 ], [ 4.4235528, 51.9403406 ], [ 4.4236089, 51.9403468 ] ], [ [ 4.4236093, 51.9403285 ], [ 4.4236089, 51.9403468 ] ], [ [ 4.4236093, 51.9403285 ], [ 4.4236035, 51.9402878 ], [ 4.4236137, 51.9402478 ], [ 4.4236637, 51.9402051 ], [ 4.4237385, 51.9401662 ] ], [ [ 4.4256801, 51.9383285 ], [ 4.4255383, 51.9384635 ], [ 4.4254616, 51.9385413 ], [ 4.4254277, 51.9385751 ], [ 4.424527, 51.9394156 ], [ 4.4244365, 51.9395016 ], [ 4.4243383, 51.9395954 ], [ 4.423911, 51.9400067 ], [ 4.423875, 51.940041 ], [ 4.4237385, 51.9401662 ] ], [ [ 4.426357, 51.9377056 ], [ 4.4258017, 51.9382196 ], [ 4.4257632, 51.9382561 ], [ 4.4256801, 51.9383285 ] ], [ [ 4.4270683, 51.9370452 ], [ 4.426357, 51.9377056 ] ], [ [ 4.4270683, 51.9370452 ], [ 4.427082, 51.9369986 ], [ 4.4271667, 51.9368991 ], [ 4.4272147, 51.9368427 ], [ 4.4272507, 51.9368028 ] ], [ [ 4.4272507, 51.9368028 ], [ 4.4272908, 51.9367633 ] ], [ [ 4.4272908, 51.9367633 ], [ 4.4272819, 51.9367529 ], [ 4.4272755, 51.9367419 ], [ 4.4272717, 51.9367304 ], [ 4.4272707, 51.9367186 ], [ 4.4272724, 51.9367069 ] ], [ [ 4.4272724, 51.9367069 ], [ 4.4272781, 51.9366931 ], [ 4.4272876, 51.9366801 ], [ 4.4273006, 51.9366683 ], [ 4.4273167, 51.9366581 ], [ 4.4273355, 51.9366498 ], [ 4.4273599, 51.9366428 ], [ 4.4273861, 51.936639 ], [ 4.427413, 51.9366385 ], [ 4.4274395, 51.9366414 ], [ 4.4274645, 51.9366476 ] ], [ [ 4.4281046, 51.9351245 ], [ 4.4280624, 51.9352322 ], [ 4.4278272, 51.9358177 ], [ 4.4277727, 51.9359681 ], [ 4.4275644, 51.9364877 ], [ 4.4275443, 51.9365293 ], [ 4.4275143, 51.9365734 ], [ 4.4274927, 51.9366066 ], [ 4.4274645, 51.9366476 ] ], [ [ 4.4281046, 51.9351245 ], [ 4.4282361, 51.9351408 ], [ 4.4282921, 51.9351477 ], [ 4.4284362, 51.93517 ], [ 4.4289546, 51.9352362 ], [ 4.4291652, 51.9352584 ], [ 4.4294591, 51.9352941 ], [ 4.4295216, 51.935298 ], [ 4.4299695, 51.9353437 ], [ 4.4302942, 51.9353537 ], [ 4.4304167, 51.9353625 ], [ 4.4308465, 51.9353842 ] ], [ [ 4.4308465, 51.9353842 ], [ 4.4312794, 51.9354367 ], [ 4.4315777, 51.9354896 ], [ 4.4316673, 51.9355106 ], [ 4.4318489, 51.9355536 ] ], [ [ 4.4318489, 51.9355536 ], [ 4.4326687, 51.9357792 ], [ 4.432806, 51.935817 ] ], [ [ 4.432806, 51.935817 ], [ 4.4335304, 51.9360056 ] ], [ [ 4.4335304, 51.9360056 ], [ 4.4338477, 51.9360938 ], [ 4.4343502, 51.9362335 ] ], [ [ 4.4343502, 51.9362335 ], [ 4.4344356, 51.9362579 ], [ 4.4345994, 51.9363048 ], [ 4.4347173, 51.9363353 ], [ 4.4348625, 51.9363498 ], [ 4.4348984, 51.9363534 ], [ 4.4349629, 51.9363638 ], [ 4.4350452, 51.9363763 ], [ 4.435355, 51.936415 ], [ 4.4354, 51.9364214 ], [ 4.4356714, 51.9364533 ], [ 4.43579, 51.9364708 ], [ 4.4359224, 51.936488 ], [ 4.4362273, 51.9365278 ], [ 4.4363167, 51.9365412 ], [ 4.4363799, 51.9365609 ] ], [ [ 4.4363799, 51.9365609 ], [ 4.4364906, 51.9365726 ], [ 4.4365201, 51.93659 ], [ 4.4365598, 51.9366094 ], [ 4.436657, 51.9366751 ] ], [ [ 4.436657, 51.9366751 ], [ 4.4366802, 51.9366691 ], [ 4.4367048, 51.9366655 ], [ 4.4367299, 51.9366643 ], [ 4.436755, 51.9366656 ], [ 4.4367795, 51.9366694 ], [ 4.4368026, 51.9366756 ] ], [ [ 4.4368026, 51.9366756 ], [ 4.4368771, 51.9366314 ], [ 4.4369048, 51.936615 ], [ 4.4369531, 51.9365826 ], [ 4.4370105, 51.9365338 ], [ 4.4370708, 51.9364852 ], [ 4.438046, 51.9355251 ] ], [ [ 4.438046, 51.9355251 ], [ 4.4381221, 51.9354479 ], [ 4.4382133, 51.9353555 ] ], [ [ 4.4382133, 51.9353555 ], [ 4.4382864, 51.9352625 ], [ 4.4384223, 51.9351197 ], [ 4.4388365, 51.9345667 ], [ 4.4391044, 51.9341261 ], [ 4.4391723, 51.934013 ], [ 4.4393924, 51.9336307 ], [ 4.4395438, 51.933357 ], [ 4.4395594, 51.9333155 ], [ 4.4395824, 51.9331184 ], [ 4.4395469, 51.9329741 ], [ 4.4394849, 51.9328529 ], [ 4.4393018, 51.9326505 ], [ 4.439026, 51.9324489 ], [ 4.4388869, 51.9322886 ], [ 4.4388526, 51.932255 ], [ 4.4387756, 51.932219 ], [ 4.4387049, 51.9322029 ] ], [ [ 4.4387049, 51.9322029 ], [ 4.4383391, 51.9322507 ], [ 4.4381153, 51.9322364 ], [ 4.4379492, 51.9322073 ], [ 4.4377427, 51.9321497 ], [ 4.4375373, 51.9320514 ], [ 4.4374257, 51.9319424 ], [ 4.4373655, 51.9318549 ], [ 4.4373135, 51.931756 ], [ 4.4372909, 51.9316676 ], [ 4.4372956, 51.9315379 ], [ 4.4373471, 51.9313718 ] ], [ [ 4.4373471, 51.9313718 ], [ 4.4374625, 51.9312203 ], [ 4.4375532, 51.9311215 ] ], [ [ 4.4375532, 51.9311215 ], [ 4.4376732, 51.931012 ] ], [ [ 4.4376732, 51.931012 ], [ 4.4378084, 51.930918 ], [ 4.4378491, 51.9308934 ], [ 4.437925, 51.9308589 ], [ 4.4380303, 51.9308105 ], [ 4.4382128, 51.9307495 ], [ 4.4383866, 51.9307039 ] ], [ [ 4.4383866, 51.9307039 ], [ 4.4384606, 51.930684 ] ], [ [ 4.4384606, 51.930684 ], [ 4.4385979, 51.9306589 ], [ 4.4388836, 51.9306266 ] ], [ [ 4.4388836, 51.9306266 ], [ 4.4390259, 51.9306016 ], [ 4.4391281, 51.9305836 ], [ 4.4393096, 51.9305258 ] ], [ [ 4.4393096, 51.9305258 ], [ 4.4403453, 51.9301617 ] ], [ [ 4.4403453, 51.9301617 ], [ 4.4409573, 51.9299366 ] ], [ [ 4.4409573, 51.9299366 ], [ 4.4411748, 51.9298744 ], [ 4.4413655, 51.9298059 ] ], [ [ 4.4413655, 51.9298059 ], [ 4.4415222, 51.9297594 ], [ 4.4417071, 51.9297127 ] ], [ [ 4.4417071, 51.9297127 ], [ 4.4417842, 51.9296966 ], [ 4.4420381, 51.9296437 ], [ 4.4421633, 51.9296299 ], [ 4.442924, 51.9295461 ], [ 4.4432197, 51.9295176 ], [ 4.4436136, 51.9294796 ], [ 4.4440005, 51.9294389 ], [ 4.4443073, 51.9294184 ], [ 4.4445478, 51.9294001 ], [ 4.4474544, 51.9290982 ], [ 4.4476899, 51.9290793 ], [ 4.4479408, 51.929063 ], [ 4.4482372, 51.9290547 ], [ 4.4486326, 51.929048 ], [ 4.4489235, 51.9290776 ] ], [ [ 4.4489235, 51.9290776 ], [ 4.4505814, 51.9288779 ] ], [ [ 4.4505814, 51.9288779 ], [ 4.4514699, 51.9287753 ], [ 4.4518474, 51.9287377 ], [ 4.45219, 51.9287191 ], [ 4.4525883, 51.9287125 ], [ 4.4530001, 51.9287208 ], [ 4.4534101, 51.9287454 ], [ 4.4536269, 51.9287704 ] ], [ [ 4.4536269, 51.9287704 ], [ 4.4537717, 51.9287871 ], [ 4.4538429, 51.9287985 ] ], [ [ 4.4538429, 51.9287985 ], [ 4.454073, 51.9288375 ], [ 4.4544729, 51.9289097 ] ], [ [ 4.4544729, 51.9289097 ], [ 4.4545912, 51.9289339 ], [ 4.4546806, 51.9289573 ], [ 4.4548902, 51.9290061 ] ], [ [ 4.4548902, 51.9290061 ], [ 4.4549257, 51.9289068 ], [ 4.4549456, 51.9288733 ], [ 4.4550214, 51.9287058 ], [ 4.4550269, 51.9286202 ], [ 4.4550345, 51.9285739 ], [ 4.4550393, 51.9285287 ] ], [ [ 4.4545924, 51.9268305 ], [ 4.4546198, 51.9269176 ], [ 4.4547638, 51.9274642 ], [ 4.4549944, 51.9283163 ], [ 4.4550393, 51.9285287 ] ], [ [ 4.4545301, 51.9265879 ], [ 4.4545924, 51.9268305 ] ], [ [ 4.4543542, 51.9258783 ], [ 4.4543871, 51.925981 ], [ 4.4544488, 51.9262046 ], [ 4.4545137, 51.9265237 ], [ 4.4545301, 51.9265879 ] ], [ [ 4.4543542, 51.9258783 ], [ 4.4543238, 51.9258223 ], [ 4.4543069, 51.9257686 ], [ 4.4542986, 51.9257129 ], [ 4.4543091, 51.9256567 ], [ 4.4543138, 51.9256372 ], [ 4.4543205, 51.9256151 ], [ 4.4543513, 51.9255099 ] ], [ [ 4.4543513, 51.9255099 ], [ 4.4543787, 51.9254161 ] ], [ [ 4.4543787, 51.9254161 ], [ 4.4543954, 51.9253385 ], [ 4.4544069, 51.9253035 ], [ 4.4544457, 51.9251858 ], [ 4.4544971, 51.9251254 ] ], [ [ 4.4547985, 51.9240059 ], [ 4.4545738, 51.9248404 ], [ 4.4544971, 51.9251254 ] ], [ [ 4.4549616, 51.9230629 ], [ 4.4547985, 51.9240059 ] ], [ [ 4.4550899, 51.9218326 ], [ 4.4551035, 51.9220362 ], [ 4.4551046, 51.9221035 ], [ 4.4551018, 51.9221732 ], [ 4.4550948, 51.9222349 ], [ 4.455076, 51.9224184 ], [ 4.4550073, 51.9227973 ], [ 4.4549616, 51.9230629 ] ], [ [ 4.4550899, 51.9218326 ], [ 4.4550388, 51.9217086 ], [ 4.455006, 51.9215775 ], [ 4.4549942, 51.9215052 ], [ 4.4549793, 51.9214665 ], [ 4.4549497, 51.9213841 ] ], [ [ 4.4549497, 51.9213841 ], [ 4.4548887, 51.9213703 ], [ 4.4548372, 51.9213458 ], [ 4.4547998, 51.921313 ], [ 4.45478, 51.9212748 ] ], [ [ 4.45478, 51.9212748 ], [ 4.4547785, 51.9212401 ], [ 4.4547916, 51.9212063 ] ], [ [ 4.4547916, 51.9212063 ], [ 4.4548195, 51.9211749 ], [ 4.4548601, 51.9211492 ], [ 4.4549102, 51.9211312 ] ], [ [ 4.4549102, 51.9211312 ], [ 4.4549566, 51.9211229 ], [ 4.4550048, 51.9211212 ] ], [ [ 4.4550048, 51.9211212 ], [ 4.4550553, 51.9211267 ], [ 4.4551023, 51.9211395 ], [ 4.455143, 51.9211587 ], [ 4.4551753, 51.9211833 ], [ 4.4551972, 51.9212119 ], [ 4.4552075, 51.9212429 ] ], [ [ 4.4552075, 51.9212429 ], [ 4.4553035, 51.9212544 ], [ 4.4553399, 51.9212611 ], [ 4.4553838, 51.9212662 ], [ 4.4557744, 51.9213125 ], [ 4.4559055, 51.921322 ], [ 4.4560815, 51.9213233 ] ], [ [ 4.4560815, 51.9213233 ], [ 4.4562137, 51.9213262 ], [ 4.4562858, 51.9213293 ], [ 4.4563319, 51.9213323 ], [ 4.4563924, 51.9213379 ], [ 4.4564273, 51.9213438 ], [ 4.4565831, 51.9213873 ] ], [ [ 4.4565831, 51.9213873 ], [ 4.4566331, 51.9213916 ], [ 4.4576673, 51.921552 ], [ 4.4577853, 51.9215706 ], [ 4.458058, 51.9216089 ], [ 4.4582198, 51.9216332 ], [ 4.4597362, 51.9218601 ], [ 4.4599094, 51.921886 ] ], [ [ 4.4599094, 51.921886 ], [ 4.4600325, 51.9219062 ], [ 4.4604705, 51.9219773 ], [ 4.4613142, 51.9221156 ], [ 4.4616448, 51.922171 ] ], [ [ 4.4616448, 51.922171 ], [ 4.4617134, 51.9221824 ], [ 4.4617725, 51.9221935 ], [ 4.4619426, 51.9222344 ], [ 4.4620721, 51.9222699 ], [ 4.462115, 51.9222847 ] ], [ [ 4.462115, 51.9222847 ], [ 4.4623979, 51.922397 ], [ 4.4624193, 51.9224055 ], [ 4.4624753, 51.9224277 ], [ 4.4625906, 51.9224711 ], [ 4.4626216, 51.9224813 ] ], [ [ 4.4626216, 51.9224813 ], [ 4.4626495, 51.9224891 ], [ 4.4626953, 51.9225019 ], [ 4.4627519, 51.9225161 ], [ 4.4628089, 51.922529 ], [ 4.4628765, 51.9225423 ], [ 4.4629379, 51.922553 ], [ 4.4629551, 51.9225556 ], [ 4.4629684, 51.9225576 ] ], [ [ 4.4629684, 51.9225576 ], [ 4.4630866, 51.922572 ], [ 4.4631677, 51.9225794 ], [ 4.463195, 51.9225819 ], [ 4.4633035, 51.9225908 ], [ 4.4634131, 51.9225988 ], [ 4.4635027, 51.922604 ], [ 4.4635669, 51.9226056 ], [ 4.4636152, 51.922605 ], [ 4.4637553, 51.9226003 ], [ 4.4638451, 51.922596 ], [ 4.4641045, 51.9225796 ], [ 4.4643959, 51.9225644 ] ], [ [ 4.4643959, 51.9225644 ], [ 4.4653094, 51.9225108 ], [ 4.4657743, 51.9224844 ], [ 4.465837, 51.9224792 ], [ 4.4659059, 51.9224734 ], [ 4.4661004, 51.9224577 ] ], [ [ 4.4661004, 51.9224577 ], [ 4.4661031, 51.9225636 ] ], [ [ 4.4661031, 51.9225636 ], [ 4.4661108, 51.9226572 ], [ 4.4661146, 51.9227008 ], [ 4.4661177, 51.9227361 ], [ 4.4661292, 51.9228669 ] ], [ [ 4.4661292, 51.9228669 ], [ 4.4661341, 51.9229985 ] ], [ [ 4.4661341, 51.9229985 ], [ 4.4661354, 51.9230326 ], [ 4.4661355, 51.9230767 ] ], [ [ 4.4661355, 51.9230767 ], [ 4.4661396, 51.9233651 ] ], [ [ 4.4661396, 51.9233651 ], [ 4.4661421, 51.9235379 ] ], [ [ 4.4661421, 51.9235379 ], [ 4.4661428, 51.9236306 ] ], [ [ 4.4661428, 51.9236306 ], [ 4.4661393, 51.9236532 ], [ 4.4661494, 51.9236689 ], [ 4.4661621, 51.923681 ], [ 4.4661804, 51.9236909 ], [ 4.4662085, 51.9236968 ], [ 4.4662464, 51.9236995 ], [ 4.4663386, 51.9237001 ], [ 4.4668433, 51.9236986 ], [ 4.4668877, 51.9236997 ] ], [ [ 4.4668877, 51.9236997 ], [ 4.4669333, 51.9237013 ], [ 4.4669755, 51.9237047 ], [ 4.4670286, 51.9237111 ], [ 4.4670843, 51.92372 ], [ 4.4672355, 51.9237505 ] ] ] } }
]
}
